{
  "type": "FeatureCollection",
  "features": [
    {
      "type": "Feature",
      "properties": {
        "norad_id": 59626,
        "name": "LEGION 2",
        "group": "resource",
        "lat": -66.60920636688749,
        "lon": 71.48298988915379,
        "alt_km": 520.5364769979087,
        "timestamp": "2025-12-04T21:36:15.532252+00:00",
        "meta_object_name": "LEGION 2",
        "meta_object_id": "2024-081B",
        "meta_epoch": "2025-12-04T15:34:03.277920",
        "meta_mean_motion": 15.16366639,
        "meta_eccentricity": 0.00061501,
        "meta_inclination": 97.5231,
        "meta_ra_of_asc_node": 53.4438,
        "meta_arg_of_pericenter": 326.475,
        "meta_mean_anomaly": 33.6093,
        "meta_ephemeris_type": 0,
        "meta_classification_type": "U",
        "meta_norad_cat_id": 59626,
        "meta_element_set_no": 999,
        "meta_rev_at_epoch": 8805,
        "meta_bstar": 0.0005655511,
        "meta_mean_motion_dot": 0.00010921,
        "meta_mean_motion_ddot": 0,
        "tle_line1": "1 59626U 24081B   25338.64864905  .00010921  00000+0  56555-3 0  9997",
        "tle_line2": "2 59626  97.5231  53.4438 0006150 326.4750  33.6093 15.16366639 88054"
      },
      "geometry": {
        "type": "Point",
        "coordinates": [
          71.48298988915379,
          -66.60920636688749
        ]
      }
    },
    {
      "type": "Feature",
      "properties": {
        "norad_id": 60182,
        "name": "ALOS-4 (DAICHI-4)",
        "group": "resource",
        "lat": -82.02737598774529,
        "lon": 157.80037182958932,
        "alt_km": 639.2179625668705,
        "timestamp": "2025-12-04T21:36:15.532262+00:00",
        "meta_object_name": "ALOS-4 (DAICHI-4)",
        "meta_object_id": "2024-123A",
        "meta_epoch": "2025-12-04T15:30:51.214176",
        "meta_mean_motion": 14.7948083,
        "meta_eccentricity": 0.000129,
        "meta_inclination": 97.9234,
        "meta_ra_of_asc_node": 73.6086,
        "meta_arg_of_pericenter": 98.409,
        "meta_mean_anomaly": 261.7268,
        "meta_ephemeris_type": 0,
        "meta_classification_type": "U",
        "meta_norad_cat_id": 60182,
        "meta_element_set_no": 999,
        "meta_rev_at_epoch": 7711,
        "meta_bstar": -1.2766e-05,
        "meta_mean_motion_dot": -1.47e-06,
        "meta_mean_motion_ddot": 0,
        "tle_line1": "1 60182U 24123A   25338.64642609 -.00000147  00000+0 -12766-4 0  9996",
        "tle_line2": "2 60182  97.9234  73.6086 0001290  98.4090 261.7268 14.79480830 77117"
      },
      "geometry": {
        "type": "Point",
        "coordinates": [
          157.80037182958932,
          -82.02737598774529
        ]
      }
    },
    {
      "type": "Feature",
      "properties": {
        "norad_id": 60452,
        "name": "LEGION 3",
        "group": "resource",
        "lat": -41.70708829453761,
        "lon": -70.93795612219297,
        "alt_km": 529.4306877606132,
        "timestamp": "2025-12-04T21:36:15.532287+00:00",
        "meta_object_name": "LEGION 3",
        "meta_object_id": "2024-146A",
        "meta_epoch": "2025-12-04T12:25:22.661760",
        "meta_mean_motion": 15.15626149,
        "meta_eccentricity": 0.00139031,
        "meta_inclination": 45.0023,
        "meta_ra_of_asc_node": 354.2057,
        "meta_arg_of_pericenter": 152.227,
        "meta_mean_anomaly": 207.9353,
        "meta_ephemeris_type": 0,
        "meta_classification_type": "U",
        "meta_norad_cat_id": 60452,
        "meta_element_set_no": 999,
        "meta_rev_at_epoch": 7248,
        "meta_bstar": 0.00060584154,
        "meta_mean_motion_dot": 0.00011489,
        "meta_mean_motion_ddot": 0,
        "tle_line1": "1 60452U 24146A   25338.51762340  .00011489  00000+0  60584-3 0  9991",
        "tle_line2": "2 60452  45.0023 354.2057 0013903 152.2270 207.9353 15.15626149 72484"
      },
      "geometry": {
        "type": "Point",
        "coordinates": [
          -70.93795612219297,
          -41.70708829453761
        ]
      }
    },
    {
      "type": "Feature",
      "properties": {
        "norad_id": 60453,
        "name": "LEGION 4",
        "group": "resource",
        "lat": -43.15413578845544,
        "lon": 14.336860662853065,
        "alt_km": 515.8352663865971,
        "timestamp": "2025-12-04T21:36:15.532299+00:00",
        "meta_object_name": "LEGION 4",
        "meta_object_id": "2024-146B",
        "meta_epoch": "2025-12-04T15:36:27.390528",
        "meta_mean_motion": 15.15691704,
        "meta_eccentricity": 0.00099596,
        "meta_inclination": 45.0387,
        "meta_ra_of_asc_node": 85.2201,
        "meta_arg_of_pericenter": 268.9762,
        "meta_mean_anomaly": 90.9976,
        "meta_ephemeris_type": 0,
        "meta_classification_type": "U",
        "meta_norad_cat_id": 60453,
        "meta_element_set_no": 999,
        "meta_rev_at_epoch": 7135,
        "meta_bstar": 0.0006569088,
        "meta_mean_motion_dot": 0.00012492,
        "meta_mean_motion_ddot": 0,
        "tle_line1": "1 60453U 24146B   25338.65031702  .00012492  00000+0  65691-3 0  9997",
        "tle_line2": "2 60453  45.0387  85.2201 0009959 268.9762  90.9976 15.15691704 71352"
      },
      "geometry": {
        "type": "Point",
        "coordinates": [
          14.336860662853065,
          -43.15413578845544
        ]
      }
    },
    {
      "type": "Feature",
      "properties": {
        "norad_id": 60989,
        "name": "SENTINEL-2C",
        "group": "resource",
        "lat": -34.10645640891897,
        "lon": 57.35047320205276,
        "alt_km": 795.7148876296505,
        "timestamp": "2025-12-04T21:36:15.532310+00:00",
        "meta_object_name": "SENTINEL-2C",
        "meta_object_id": "2024-157A",
        "meta_epoch": "2025-12-04T15:03:07.920000",
        "meta_mean_motion": 14.30825273,
        "meta_eccentricity": 0.0001133,
        "meta_inclination": 98.5612,
        "meta_ra_of_asc_node": 51.2264,
        "meta_arg_of_pericenter": 101.5584,
        "meta_mean_anomaly": 258.5726,
        "meta_ephemeris_type": 0,
        "meta_classification_type": "U",
        "meta_norad_cat_id": 60989,
        "meta_element_set_no": 999,
        "meta_rev_at_epoch": 6516,
        "meta_bstar": 0.00014036146,
        "meta_mean_motion_dot": 3.24e-06,
        "meta_mean_motion_ddot": 0,
        "tle_line1": "1 60989U 24157A   25338.62717500  .00000324  00000+0  14036-3 0  9995",
        "tle_line2": "2 60989  98.5612  51.2264 0001133 101.5584 258.5726 14.30825273 65165"
      },
      "geometry": {
        "type": "Point",
        "coordinates": [
          57.35047320205276,
          -34.10645640891897
        ]
      }
    },
    {
      "type": "Feature",
      "properties": {
        "norad_id": 61735,
        "name": "IONOSFERA-M 1",
        "group": "resource",
        "lat": 76.58256454875315,
        "lon": 68.96759711209371,
        "alt_km": 808.5895992176611,
        "timestamp": "2025-12-04T21:36:15.532321+00:00",
        "meta_object_name": "IONOSFERA-M 1",
        "meta_object_id": "2024-199A",
        "meta_epoch": "2025-12-04T16:04:17.691744",
        "meta_mean_motion": 14.22711332,
        "meta_eccentricity": 0.00013192,
        "meta_inclination": 98.7408,
        "meta_ra_of_asc_node": 208.5794,
        "meta_arg_of_pericenter": 32.9099,
        "meta_mean_anomaly": 327.2161,
        "meta_ephemeris_type": 0,
        "meta_classification_type": "U",
        "meta_norad_cat_id": 61735,
        "meta_element_set_no": 999,
        "meta_rev_at_epoch": 10004,
        "meta_bstar": 9.4848156e-05,
        "meta_mean_motion_dot": 1.68e-06,
        "meta_mean_motion_ddot": 0,
        "tle_line1": "1 61735U 24199A   25338.66964921  .00000168  00000+0  94848-4 0  9992",
        "tle_line2": "2 61735  98.7408 208.5794 0001319  32.9099 327.2161 14.22711332100044"
      },
      "geometry": {
        "type": "Point",
        "coordinates": [
          68.96759711209371,
          76.58256454875315
        ]
      }
    },
    {
      "type": "Feature",
      "properties": {
        "norad_id": 61736,
        "name": "IONOSFERA-M 2",
        "group": "resource",
        "lat": -74.57077048649596,
        "lon": -117.40135889912432,
        "alt_km": 824.4608235097412,
        "timestamp": "2025-12-04T21:36:15.532331+00:00",
        "meta_object_name": "IONOSFERA-M 2",
        "meta_object_id": "2024-199B",
        "meta_epoch": "2025-12-04T15:12:55.726848",
        "meta_mean_motion": 14.22713467,
        "meta_eccentricity": 0.00014198,
        "meta_inclination": 98.7407,
        "meta_ra_of_asc_node": 208.4566,
        "meta_arg_of_pericenter": 120.2282,
        "meta_mean_anomaly": 239.9037,
        "meta_ephemeris_type": 0,
        "meta_classification_type": "U",
        "meta_norad_cat_id": 61736,
        "meta_element_set_no": 999,
        "meta_rev_at_epoch": 10316,
        "meta_bstar": 9.9021566e-05,
        "meta_mean_motion_dot": 1.78e-06,
        "meta_mean_motion_ddot": 0,
        "tle_line1": "1 61736U 24199B   25338.63397832  .00000178  00000+0  99022-4 0  9991",
        "tle_line2": "2 61736  98.7407 208.4566 0001419 120.2282 239.9037 14.22713467103164"
      },
      "geometry": {
        "type": "Point",
        "coordinates": [
          -117.40135889912432,
          -74.57077048649596
        ]
      }
    }
  ]
}